#dP2018 12 14  0  0  0.00000000      96 __u+U ITR00 FIT  IAC
## 2031 432000.00000000   900.00000000 58466 0.0000000000000
+   92   C01C02C03C04C05C06C07C08C09C10C11C12C13C14C30C32E01
+        E02E03E04E05E07E08E09E11E12E13E14E15E18E19E21E24E25
+        E26E27E30G01G02G03G04G05G06G07G08G09G10G11G12G13G14
+        G15G16G17G18G19G20G21G22G23G24G25G26G27G28G29G30G31
+        G32R01R02R03R04R05R07R08R09R10R11R13R14R15R16R17R18
+        R19R20R21R22R23R24R26  0  0  0  0  0  0  0  0  0  0
++        12 12 12 12 12  8  8  8  8  8  8  8  8  8  0 13  6
++         5  5  6  5  5  5  6  5  5  7  5  6  5  5  5  5  5
++         5  5  5  3  3  3  4  3  3  3  3  3  4  3  4  3  3
++         3  3  3  3  3  4  3  3  3  4  0  3  3  3  3  3  3
++         4  5  5  5  5  5  5  5  5  5  5  5  5  5  5  5  5
++         6  5  5  5  5  5  8  0  0  0  0  0  0  0  0  0  0
%c M  cc GPS ccc cccc cccc cccc cccc ccccc ccccc ccccc ccccc
%c cc cc ccc ccc cccc cccc cccc cccc ccccc ccccc ccccc ccccc
%f  0.0000000  0.000000000  0.00000000000  0.000000000000000
%f  0.0000000  0.000000000  0.00000000000  0.000000000000000
%i    0    0    0    0      0      0      0      0         0
%i    0    0    0    0      0      0      0      0         0
/*                                                          
/*   RSA / INFORMATION & ANALYSIS CENTER (IAC) OF MCC       
/*   ULTRA-RAPID DETERMINATION                              
/* PCV:IGS14_2029 OL/AL:FES2004  NONE     YN ORB:CoN CLK:CoN
*  2018 12 14  0  0  0.00000000
PC01 -32318.763627  27051.267216   -523.723243    -42.326528
PC02   4462.429727  41930.126676   1075.803549   -169.043035
PC03 -14773.940251  39524.515958     21.545024   -199.748402
PC04 -39601.427474  14390.284191   -182.274285   -255.103679
PC05  21880.854695  36037.784327   1255.037664     43.910095
PC06 -17005.035350  37910.795886   8471.475552    150.679084
PC07 -10445.908541  24413.390800 -32557.691922   -182.305208
PC08 -22985.846593  23149.788004  26642.633089     61.217375
PC09  -7600.287852  40907.340472  -7641.748720    363.850494
PC10   6208.937759  32332.951084 -25971.624251   -319.099401
PC11  21374.562461 -17088.509020   5714.384379    -86.471607
PC12  14058.929085   7291.623707  23052.771273    273.772009
PC13  -8695.059675  25164.514124  32664.174261   -427.485840
PC14  16441.483823   -494.287994 -22497.543511    454.048059
PC30      0.000000      0.000000      0.000000 999999.999999
PC32 -16256.097908 -17668.337078  14232.122352 999999.999999
PE01  19509.883925  -4020.515247  21900.884468   -498.452555
PE02 -19470.923408   4057.349566 -21913.286356     39.028136
PE03 -15685.732330  14763.189372  20291.070872   -110.459631
PE04   6052.509544 -28496.553163  -5243.417868   -178.437384
PE05 -16192.745477  -7696.613569  23547.551814    143.021455
PE07   7228.928287  25575.516792 -13023.015622    -93.158196
PE08  -5723.172037  28566.144153   5196.767899   6444.002271
PE09  -7366.720033 -25524.044557  13068.491856   6589.307793
PE11  -8407.993869 -14172.667268 -24588.190046   5715.855458
PE12  13069.288495 -19647.617194 -17856.161242   5710.790554
PE13      0.000000      0.000000      0.000000    160.049163
PE14 -22493.112190  15357.470840 -14412.799401   6475.318831
PE15 -12590.055843  19681.493867  18181.853081    707.241853
PE18  13979.313930 -22426.046474    597.147902   5684.496772
PE19  16050.149937 -12751.570465 -21355.705200     -9.917391
PE21  26028.614763  12289.747612   6906.574606   -509.239224
PE24 -17297.128482 -21120.200222  11413.450606   6340.029537
PE25 -26022.004748 -12326.304827  -6854.593245   1954.958389
PE26  24400.895868    736.015139  16755.812829   5138.774326
PE27  16986.598549  21094.422158 -11940.530296    570.937781
PE30  -1578.977621  17817.080024 -23588.984903   5272.215133
PG01 -10161.131758 -13502.005778 -20734.868115   -128.523795
PG02 -13479.495057  14644.662488  18073.677278    -84.994392
PG03 -13016.527068 -23028.006291  -2813.681339    169.314987
PG04  13201.871614 -21561.172470   6898.146387    -96.826088
PG05  -2849.749488  18799.913769  18339.750921      0.368529
PG06 -24393.425338   7041.612070   7873.646678    316.821502
PG07 -23154.212610  -7080.370565  11673.633728     71.036701
PG08   4469.907087 -24328.375905  -9384.264103   -125.480525
PG09 -12478.061018  -9329.226537  21464.430393    483.430412
PG10  17962.128574   2422.591326 -19435.053177    151.916288
PG11  -4557.500169 -16255.703891 -21069.846634   -688.923441
PG12   9324.715847  24259.859044  -6118.501401    284.713541
PG13 -12172.449192  23309.674291  -3733.976529    -81.658925
PG14  18074.938650 -16044.473200 -10506.295370    -94.662379
PG15    510.907078  23616.109641 -11991.474930   -336.353324
PG16   4619.541421 -17658.104400  18969.146114     -6.487035
PG17 -17796.138546   7683.400000 -17699.584886    -18.968762
PG18   1015.119628 -15745.104733 -21833.295743      5.186861
PG19 -18546.940774  15704.429724 -11138.087560   -374.144761
PG20  21127.205042  10304.449589 -12608.277719    519.917257
PG21  24539.053733   4234.704043   9918.514073   -287.806025
PG22  -8490.033879 -23107.519864  -9790.275506   -597.981166
PG23  -6267.651857 -18147.735122  18483.360587   -203.606207
PG24   5016.541031  15150.151344 -21396.192158    -59.470301
PG25  16779.968334  20331.385759   4003.232493   -690.833001
PG26  11736.693335  -9988.308815  21620.420177     66.952244
PG27  11686.623541 -23681.371615    140.746850    -31.948559
PG28 -17328.232234  -5898.035365 -18594.191078    758.396494
PG29   9411.737906  12320.731164  21544.010836    316.001521
PG30 -26644.155691    -31.777346    744.690574    -19.383226
PG31  23319.752716  -8097.209947  10385.288984     73.026867
PG32  17948.519678 -10079.115024 -16691.864608   -319.688311
PR01  -2718.316170  22491.569702  11701.970371     36.403793
PR02   6626.154384  23223.387024  -8263.869851    344.269120
PR03  11179.325209   9186.747621 -20987.744892    151.566846
PR04   8974.986625 -10704.892196 -21331.000026    287.338670
PR05   1784.065857 -23500.244049  -9730.145096     17.618766
PR07 -11222.239284  -8603.802446  21246.220729    -53.658982
PR08  -9229.357029   9960.694261  21637.876422     20.018722
PR09 -16496.065836 -14262.283650  13303.992130     43.611412
PR10 -23666.900990  -9326.257045  -2397.987692     37.589499
PR11 -17822.073343   1735.337694 -18167.503313    -50.078574
PR13  15956.518670  13948.152424 -14207.922346    -17.880966
PR14  23700.916795   9117.933564   2374.140780     33.946477
PR15  18325.616477  -1109.625061  17736.365617     98.863142
PR16   2573.898522 -10814.615974  22935.363707    108.697064
PR17  16541.099220  -1097.994724  19415.631278    187.693744
PR18  21424.099343 -12634.315872   5554.860175     28.106104
PR19  15108.854519 -17008.134446 -11539.658702    -62.121761
PR20  -1672.687322 -11339.657278 -22770.876248   -362.251472
PR21 -16761.181433   1513.405849 -19151.097544    -19.738630
PR22 -21287.290686  13828.086789  -3083.886417    -64.482375
PR23 -11306.077499  16905.350297  15391.462425    196.654102
PR24   3174.382337  10549.894922  22986.922414   -174.880601
PR26   -135.096523 -12398.665361 -22280.866053      9.778253
EOF
